{"type":"FeatureCollection","features":[{"type":"Feature","properties":{},"geometry":{"coordinates":[[[106.70241666867582,10.782103510869376],[106.70287142188403,10.782597380051854],[106.70258990832843,10.78287333215242],[106.70240004437795,10.783042439769673],[106.70216982127187,10.78279434919061],[106.7023695390136,10.782624005516851],[106.70211555984474,10.782353165044896],[106.70241666867582,10.782103510869376]]],"type":"Polygon"}},{"type":"Feature","properties":{},"geometry":{"coordinates":[[[106.70296744894205,10.781657815171258],[106.70319740142321,10.781915542415618],[106.70303818625064,10.782040736699713],[106.70280454085946,10.781786159336264],[106.70296744894205,10.781657815171258]]],"type":"Polygon"}},{"type":"Feature","properties":{},"geometry":{"coordinates":[[[106.70353851625623,10.780891162039438],[106.70343541480611,10.780982656565783],[106.70337780031184,10.780919565435525],[106.70333535079868,10.780957407979244],[106.70322644942559,10.780836649628085],[106.70316715707264,10.780892615055933],[106.70313078850216,10.780850769275958],[106.70314316381223,10.780840060600724],[106.70302510569951,10.780706489972886],[106.70309808419029,10.780642983201176],[106.703085758609,10.780629723444505],[106.70311582441423,10.780603688879609],[106.70310600109008,10.780592774378775],[106.70317442199286,10.780533960189729],[106.7031851239031,10.780544417507542],[106.70320755168615,10.780524457473746],[106.70353851625623,10.780891162039438]]],"type":"Polygon"}},{"type":"Feature","properties":{},"geometry":{"coordinates":[[[106.70200705063968,10.782854433990053],[106.70186358711351,10.782704397395847],[106.7018104726618,10.782634384388274],[106.70180619820178,10.782559829763755],[106.70193792531933,10.782442313764463],[106.70226484538614,10.782678518090819],[106.70200705063968,10.782854433990053]]],"type":"Polygon"}},{"type":"Feature","properties":{},"geometry":{"coordinates":[[[106.70298674089724,10.780616796471278],[106.70287765351037,10.780489214799161],[106.7028164104346,10.780358345555115],[106.70285721448278,10.780310201103873],[106.70280350743349,10.780258160196013],[106.70275594833498,10.780116904601726],[106.70241533685214,10.77974924505277],[106.70250969928662,10.779670026955344],[106.70319486381482,10.78042018852149],[106.70298674089724,10.780616796471278]]],"type":"Polygon"}},{"type":"Feature","properties":{},"geometry":{"coordinates":[[[106.70150284205067,10.780231214211796],[106.70143043594237,10.78029918566061],[106.70139261255434,10.780258861472802],[106.70146485229867,10.780191856176799],[106.70150284205067,10.780231214211796]]],"type":"Polygon"}},{"type":"Feature","properties":{},"geometry":{"coordinates":[[[106.70146289214921,10.780142891486534],[106.70136646165793,10.780227023758414],[106.70130771786438,10.780162224068093],[106.70139209749237,10.780087151042935],[106.70143367591493,10.780131501531088],[106.70144393641493,10.780122183888196],[106.70146289214921,10.780142891486534]]],"type":"Polygon"}},{"type":"Feature","properties":{},"geometry":{"coordinates":[[[106.70127794917744,10.780145216730304],[106.70160633710873,10.780525031902684],[106.70146364085394,10.780644693867274],[106.70148832510085,10.780675056266489],[106.70145028332786,10.780711054775395],[106.70145934232465,10.780722708888646],[106.70143849526926,10.780740598926243],[106.7014285450503,10.7807294974197],[106.7013989821645,10.780751414404307],[106.70136190737594,10.780705674955357],[106.70128350687435,10.780718160050881],[106.70117587366246,10.780342903950654],[106.70123621063937,10.780316453298155],[106.70116928164833,10.780236138955573],[106.70127794917744,10.780145216730304]]],"type":"Polygon"}},{"type":"Feature","properties":{},"geometry":{"coordinates":[[[106.7015161637596,10.78107979332998],[106.70148883052462,10.781047694513305],[106.70154526260325,10.781000813271248],[106.7013684206641,10.78080269913707],[106.70159655053334,10.780604853566217],[106.70182351918692,10.780859271694723],[106.7016098708367,10.78104392646334],[106.7015855852851,10.781019262631503],[106.7015161637596,10.78107979332998]]],"type":"Polygon"}},{"type":"Feature","properties":{},"geometry":{"coordinates":[[[106.70137380869511,10.780953009232348],[106.70146101245825,10.780930997127143],[106.70148918882927,10.781034467999476],[106.70140244758397,10.78105681221389],[106.70137380869511,10.780953009232348]]],"type":"Polygon"}},{"type":"Feature","properties":{},"geometry":{"coordinates":[[[106.70234719021369,10.781260940212732],[106.7025613234722,10.781521970846896],[106.70247887293499,10.781590891787019],[106.70225635825886,10.78133926330247],[106.70234719021369,10.781260940212732]]],"type":"Polygon"}},{"type":"Feature","properties":{},"geometry":{"coordinates":[[[106.7022016442744,10.781688749471698],[106.70228971089307,10.781611830998216],[106.70251914494776,10.781866912215307],[106.70242597380309,10.781942982359169],[106.7022016442744,10.781688749471698]]],"type":"Polygon"}},{"type":"Feature","properties":{},"geometry":{"coordinates":[[[106.70150117329985,10.77996622719202],[106.70146460452725,10.779928080102053],[106.70151695861642,10.779879654929914],[106.70155136061896,10.779917559536358],[106.70150117329985,10.77996622719202]]],"type":"Polygon"}},{"type":"Feature","properties":{},"geometry":{"coordinates":[[[106.70279558952842,10.781613257356852],[106.702413834894,10.781182964497276],[106.70246677020242,10.781136127258748],[106.70233749130523,10.780994029895325],[106.70228241580764,10.781041399406632],[106.7021373120541,10.780876399776787],[106.70219195554364,10.780828596204472],[106.7021324336074,10.780764864297765],[106.70207286003233,10.78081212969083],[106.70200513600105,10.780734490249571],[106.70205884734287,10.780687111222889],[106.70185468932732,10.780457176398073],[106.701800390068,10.78050246195194],[106.70163268704204,10.780315542911396],[106.70168621133399,10.780269608390228],[106.70157296528885,10.78014288589857],[106.70152017831168,10.780187699559548],[106.70145276201356,10.780113684437822],[106.70150914499197,10.780065026764817],[106.70149198989901,10.78004642926092],[106.70160705411746,10.779946867640419],[106.70210610162161,10.78050836964509],[106.70212852870998,10.780491232113718],[106.70221645154032,10.780589039887744],[106.70219695899436,10.7806068225308],[106.7025100870602,10.780961874498118],[106.70253299783411,10.780943945000061],[106.70261974477631,10.781039388731458],[106.70259958105794,10.781056080756144],[106.70294580288868,10.781447607418585],[106.70283605178776,10.781542914368686],[106.70285353024713,10.781562436453086],[106.70279558952842,10.781613257356852]]],"type":"Polygon"}},{"type":"Feature","properties":{},"geometry":{"coordinates":[[[106.7026950329352,10.781761884923398],[106.70260119093808,10.781839454674113],[106.70248295986187,10.781698442492598],[106.70257800565355,10.781621324539358],[106.7026950329352,10.781761884923398]]],"type":"Polygon"}},{"type":"Feature","properties":{},"geometry":{"coordinates":[[[106.70179231492438,10.782302673682011],[106.70174237185654,10.782322384334591],[106.70172117166379,10.782274291743505],[106.70177405703032,10.782255523448939],[106.70179231492438,10.782302673682011]]],"type":"Polygon"}},{"type":"Feature","properties":{},"geometry":{"coordinates":[[[106.70377856458833,10.78133893414055],[106.70386425520365,10.781259496430621],[106.70404357257041,10.781450190162005],[106.70395626511163,10.781527341281532],[106.70377856458833,10.78133893414055]]],"type":"Polygon"}},{"type":"Feature","properties":{},"geometry":{"coordinates":[[[106.70387230376815,10.781447009237652],[106.70394668591183,10.7815250690129],[106.70386656095764,10.78159858800531],[106.7037914855332,10.781519391646299],[106.70387230376815,10.781447009237652]]],"type":"Polygon"}},{"type":"Feature","properties":{},"geometry":{"coordinates":[[[106.70375256999353,10.781665611032977],[106.70360727542715,10.781511936712036],[106.70370247063346,10.781425386558453],[106.7038451949702,10.781579854112678],[106.70375256999353,10.781665611032977]]],"type":"Polygon"}},{"type":"Feature","properties":{},"geometry":{"coordinates":[[[106.70362828971503,10.781485745616706],[106.70336240251083,10.781201843346338],[106.70350051242195,10.78108080200748],[106.70376074111556,10.781359777246195],[106.70362828971503,10.781485745616706]]],"type":"Polygon"}},{"type":"Feature","properties":{},"geometry":{"coordinates":[[[106.70363860023866,10.781168284157843],[106.70349323967969,10.781006242099323],[106.70347200314023,10.781025254863223],[106.70343397122497,10.780983551196982],[106.70353869978027,10.78089177240227],[106.70383473433333,10.7812211708694],[106.70379311050687,10.781258700363395],[106.70375201412065,10.781216675790063],[106.70372769077704,10.781238328516167],[106.70365365954746,10.78115561340907],[106.70363860023866,10.781168284157843]]],"type":"Polygon"}},{"type":"Feature","properties":{},"geometry":{"coordinates":[[[106.70319857994207,10.781610040521699],[106.70336412677676,10.781791237173351],[106.70324455578032,10.781892897584996],[106.70307972052507,10.781712787914174],[106.70319857994207,10.781610040521699]]],"type":"Polygon"}},{"type":"Feature","properties":{},"geometry":{"coordinates":[[[106.70332230064724,10.781196530669092],[106.7032044046411,10.781054638329877],[106.70328985114594,10.780975372305065],[106.70341451296821,10.781103727992473],[106.70332230064724,10.781196530669092]]],"type":"Polygon"}},{"type":"Feature","properties":{},"geometry":{"coordinates":[[[106.7033208915438,10.781986406551027],[106.70335501213395,10.782013545602055],[106.7034464499722,10.781927735735621],[106.70349589663795,10.781977826459979],[106.70339912234402,10.782064695042934],[106.70342476362373,10.782094874067297],[106.70337286410984,10.782133755840704],[106.70334674318099,10.78210750792529],[106.70330531966937,10.78213161297596],[106.70326840689552,10.782089400527795],[106.70329975273438,10.782054277130186],[106.70327388748478,10.78202178875415],[106.7033208915438,10.781986406551027]]],"type":"Polygon"}},{"type":"Feature","properties":{},"geometry":{"coordinates":[[[106.70363558731623,10.781895029533061],[106.7035532135767,10.781790979521602],[106.70357044659858,10.781783347617719],[106.70322310444197,10.781401213736302],[106.70335435410675,10.78128926748893],[106.70373111884851,10.781726394028027],[106.70368646834243,10.781776255163692],[106.70372582146194,10.781818066619152],[106.70363558731623,10.781895029533061]]],"type":"Polygon"}},{"type":"Feature","properties":{},"geometry":{"coordinates":[[[106.70188050022989,10.781473093283722],[106.70202001931801,10.781623102568972],[106.70203068256887,10.781603792096746],[106.70213811789148,10.781709657770392],[106.70212178577742,10.78173039817969],[106.70234539026234,10.781975542117948],[106.70229993266759,10.782014313997152],[106.70234704660265,10.782055853407215],[106.70227168236016,10.782123538533256],[106.70224172871042,10.782101414384499],[106.70213448140237,10.782199698482373],[106.7016289274651,10.781643398829175],[106.70175593894288,10.781528257183567],[106.70178708784545,10.781559577433981],[106.70188050022989,10.781473093283722]]],"type":"Polygon"}},{"type":"Feature","properties":{},"geometry":{"coordinates":[[[106.70183557771674,10.781067062053822],[106.70211754806849,10.781381454840556],[106.70200749015703,10.781469964786126],[106.70172977749411,10.78115730188101],[106.70183557771674,10.781067062053822]]],"type":"Polygon"}},{"type":"Feature","properties":{},"geometry":{"coordinates":[[[106.70220831942669,10.78129129777058],[106.70194541211004,10.780996621699089],[106.70204067132067,10.780915372541685],[106.70229097079942,10.78122080224749],[106.70220831942669,10.78129129777058]]],"type":"Polygon"}},{"type":"Feature","properties":{},"geometry":{"coordinates":[[[106.70163162109725,10.779958424050719],[106.70171170980547,10.7798990839905],[106.70163746838188,10.779815561446313],[106.70199927505115,10.779509091819804],[106.70209279686696,10.779602885294068],[106.70201292551252,10.779677119179183],[106.70205229053079,10.77972079691233],[106.70209327492938,10.77976353510644],[106.70187816892667,10.779987037347624],[106.70179922153625,10.779884788195986],[106.70165398807438,10.779988361043578],[106.70163162109725,10.779958424050719]]],"type":"Polygon"}},{"type":"Feature","properties":{},"geometry":{"coordinates":[[[106.70205338876718,10.779816200475423],[106.70217597967371,10.779697432525666],[106.70228208012463,10.77982909420787],[106.70230768692738,10.779808943965108],[106.70259723100895,10.780106799232144],[106.70251232635275,10.780185174384485],[106.70253637793184,10.780216216309256],[106.70256034911176,10.780202308714522],[106.70268678752177,10.780327464171023],[106.70266953308925,10.780348062169736],[106.70267815357585,10.780366882227256],[106.7026349303656,10.780402546774113],[106.70261078492791,10.78038479348244],[106.70258517812721,10.780404943686662],[106.70247272290379,10.78027167549942],[106.7025138546577,10.780250458523184],[106.70248426611863,10.7802146885343],[106.70245947712624,10.78023171743969],[106.70222303692822,10.779963929684158],[106.70222839963037,10.779936996830486],[106.70220107680552,10.77991844013198],[106.70217383438182,10.779944832993777],[106.70205338876718,10.779816200475423]]],"type":"Polygon"}},{"type":"Feature","properties":{},"geometry":{"coordinates":[[[106.70216985878056,10.77962517018274],[106.70203041267388,10.77949522861897],[106.70216648222413,10.779333953391614],[106.70232417532043,10.77948744537332],[106.70216985878056,10.77962517018274]]],"type":"Polygon"}},{"type":"Feature","properties":{},"geometry":{"coordinates":[[[106.70239641036807,10.779859194726953],[106.70234882986477,10.779800453811674],[106.70224367059092,10.779730941840768],[106.7022196972166,10.779748866833998],[106.70217604276996,10.779689856126978],[106.70222908525272,10.779659081893968],[106.70237797017865,10.77977752301156],[106.70241076193287,10.779750465662843],[106.70243830532974,10.779782678752952],[106.70241254183861,10.779797626231371],[106.70243429785518,10.779837213144233],[106.70239641036807,10.779859194726953]]],"type":"Polygon"}},{"type":"Feature","properties":{},"geometry":{"coordinates":[[[106.7024165493147,10.77974309183216],[106.7023983023235,10.77971954150459],[106.70234867750787,10.779565600110601],[106.7023968988741,10.779533606879113],[106.70251154775332,10.779669903093762],[106.7024165493147,10.77974309183216]]],"type":"Polygon"}},{"type":"Feature","properties":{},"geometry":{"coordinates":[[[106.70381546713725,10.78169438564008],[106.70401284527071,10.781510189477487],[106.7041539050411,10.78165263838494],[106.70395167380957,10.781828762329184],[106.70381546713725,10.78169438564008]]],"type":"Polygon"}},{"type":"Feature","properties":{},"geometry":{"coordinates":[[[106.70429761179474,10.781976466269697],[106.70411929346733,10.781779419560095],[106.70427864086076,10.781649951393078],[106.70445569076753,10.781841201424285],[106.70429761179474,10.781976466269697]]],"type":"Polygon"}},{"type":"Feature","properties":{},"geometry":{"coordinates":[[[106.70414022575358,10.781964779984648],[106.7042087094768,10.782062166688476],[106.70361787880114,10.782611707167547],[106.70343149347116,10.782389191250644],[106.70384222176568,10.782042402223212],[106.7039316404651,10.782141092063696],[106.70414022575358,10.781964779984648]]],"type":"Polygon"}},{"type":"Feature","properties":{},"geometry":{"coordinates":[[[106.70403312841279,10.781866791124855],[106.70413722065894,10.78195669403415],[106.7039368666318,10.782130054075608],[106.70383653319948,10.782029991925157],[106.70403312841279,10.781866791124855]]],"type":"Polygon"}},{"type":"Feature","properties":{},"geometry":{"coordinates":[[[106.70393259458166,10.78194478791059],[106.70339627695881,10.782410279993869],[106.7033033809937,10.782361122866362],[106.703826241184,10.78190962074899],[106.70393259458166,10.78194478791059]]],"type":"Polygon"}},{"type":"Feature","properties":{},"geometry":{"coordinates":[[[106.7034710709782,10.782112422502209],[106.70342917071929,10.782064361057508],[106.70358167490673,10.781917677897823],[106.7036067206293,10.781958038507781],[106.70360635892371,10.781989888698618],[106.70357976568783,10.782021630370863],[106.7034710709782,10.782112422502209]]],"type":"Polygon"}},{"type":"Feature","properties":{},"geometry":{"coordinates":[[[106.70355803507505,10.782624194726921],[106.70346699878655,10.782705537493442],[106.70338953738309,10.782600714476786],[106.70348900416326,10.782528956405471],[106.70355803507505,10.782624194726921]]],"type":"Polygon"}},{"type":"Feature","properties":{},"geometry":{"coordinates":[[[106.70321288173022,10.782504075935279],[106.70336202704135,10.782668404561917],[106.70339019460243,10.78264178152564],[106.7034327438086,10.782694345254058],[106.70317102834798,10.782904723288993],[106.70299469466983,10.782700582263743],[106.70305292668417,10.782658394575336],[106.70318600449662,10.78281283395819],[106.70330710523831,10.782715926568642],[106.70316582002653,10.782532257937689],[106.70321288173022,10.782504075935279]]],"type":"Polygon"}},{"type":"Feature","properties":{},"geometry":{"coordinates":[[[106.7031110277191,10.782959311706094],[106.70321333587026,10.782918780593135],[106.7032664483458,10.782963843400935],[106.7026484317152,10.783482762939116],[106.70244183399456,10.783254283092049],[106.70285466343387,10.78289656350583],[106.70297742861169,10.782799083333742],[106.7031110277191,10.782959311706094]]],"type":"Polygon"}},{"type":"Feature","properties":{},"geometry":{"coordinates":[[[106.7020948574704,10.78152310856295],[106.70221722145538,10.781424507198466],[106.70219309364722,10.781317390007132],[106.7023951664275,10.78113086819019],[106.70245237777294,10.781174677406469],[106.70236596414895,10.781261492762141],[106.70233398385784,10.781259347595991],[106.70225154030385,10.781332231674526],[106.7022703306643,10.781445761976983],[106.702122757251,10.78156156600123],[106.7020948574704,10.78152310856295]]],"type":"Polygon"}},{"type":"Feature","properties":{},"geometry":{"coordinates":[[[106.70330157206445,10.78123543454052],[106.70310983845962,10.781394459261747],[106.70293218876355,10.781159559424182],[106.70310240376159,10.781021833831318],[106.70330157206445,10.78123543454052]]],"type":"Polygon"}},{"type":"Feature","properties":{},"geometry":{"coordinates":[[[106.70305297305453,10.780971998756996],[106.70288827183987,10.781094755086329],[106.70272560314152,10.78090615678039],[106.70288432597033,10.780785267312538],[106.70305297305453,10.780971998756996]]],"type":"Polygon"}},{"type":"Feature","properties":{},"geometry":{"coordinates":[[[106.70282373904718,10.780725661310882],[106.70265978702457,10.780828783847284],[106.70253263889333,10.780684562965277],[106.70266678033607,10.780549277880084],[106.70282373904718,10.780725661310882]]],"type":"Polygon"}},{"type":"Feature","properties":{},"geometry":{"coordinates":[[[106.70245095328386,10.780580280931133],[106.70232090989475,10.780440143361233],[106.70246278707674,10.780299599443552],[106.70260953860463,10.78048618343287],[106.70245095328386,10.780580280931133]]],"type":"Polygon"}}]}