{"type":"FeatureCollection","features":[{"type":"Feature","properties":{"id":"cd hình ảnh, kho hồ sơ"},"geometry":{"type":"Point","coordinates":[106.703866,10.78178]}},{"type":"Feature","properties":{"id":"test zone"},"geometry":{"type":"Point","coordinates":[106.703682,10.781619]}},{"type":"Feature","properties":{"id":"công xa cơ xưởng"},"geometry":{"type":"Point","coordinates":[106.703966,10.781895]}},{"type":"Feature","properties":{"id":"nhà xử lý rác"},"geometry":{"type":"Point","coordinates":[106.704172,10.781866]}},{"type":"Feature","properties":{"id":"nhà đại thể"},"geometry":{"type":"Point","coordinates":[106.704146,10.781837]}},{"type":"Feature","properties":{"id":"giặt máy"},"geometry":{"type":"Point","coordinates":[106.703867,10.781909]}},{"type":"Feature","properties":{"id":"thu viện phí"},"geometry":{"type":"Point","coordinates":[106.703547,10.782045]}},{"type":"Feature","properties":{"id":"phòng tài chính kế toán"},"geometry":{"type":"Point","coordinates":[106.703433,10.782131]}},{"type":"Feature","properties":{"id":"phòng IT"},"geometry":{"type":"Point","coordinates":[106.703358,10.78219]}},{"type":"Feature","properties":{"id":"phòng kế hoạch tổng hợp"},"geometry":{"type":"Point","coordinates":[106.703303,10.781975]}},{"type":"Feature","properties":{"id":"khoa nhiễm"},"geometry":{"type":"Point","coordinates":[106.703113,10.782565]}},{"type":"Feature","properties":{"id":"cấp cứu nhiễm"},"geometry":{"type":"Point","coordinates":[106.702767,10.783112]}},{"type":"Feature","properties":{"id":"hô hấp 1"},"geometry":{"type":"Point","coordinates":[106.702544,10.78315]}},{"type":"Feature","properties":{"id":"ban giám đốc, hội trường A"},"geometry":{"type":"Point","coordinates":[106.70318,10.781833]}},{"type":"Feature","properties":{"id":"phòng IT 2"},"geometry":{"type":"Point","coordinates":[106.703822,10.781645]}},{"type":"Feature","properties":{"id":"nhà xe nhân viên"},"geometry":{"type":"Point","coordinates":[106.703548,10.781473]}},{"type":"Feature","properties":{"id":"nhà xe nhân viên"},"geometry":{"type":"Point","coordinates":[106.703398,10.781617]}},{"type":"Feature","properties":{"id":"căn-tin"},"geometry":{"type":"Point","coordinates":[106.7037,10.78201]}},{"type":"Feature","properties":{"id":"cổng Lý Tự Trọng"},"geometry":{"type":"Point","coordinates":[106.703157,10.780525]}},{"type":"Feature","properties":{"id":"bảo vệ"},"geometry":{"type":"Point","coordinates":[106.702937,10.780633]}},{"type":"Feature","properties":{"id":"phòng mổ"},"geometry":{"type":"Point","coordinates":[106.702287,10.7796]}},{"type":"Feature","properties":{"id":"phòng hồi sức tích cực"},"geometry":{"type":"Point","coordinates":[106.702021,10.779822]}},{"type":"Feature","properties":{"id":"jun1"},"geometry":{"type":"Point","coordinates":[106.702913,10.780741]}},{"type":"Feature","properties":{"id":"jun2"},"geometry":{"type":"Point","coordinates":[106.703145,10.781039]}},{"type":"Feature","properties":{"id":"jun3"},"geometry":{"type":"Point","coordinates":[106.703341,10.781252]}},{"type":"Feature","properties":{"id":"jun4"},"geometry":{"type":"Point","coordinates":[106.703767,10.781711]}},{"type":"Feature","properties":{"id":"jun5"},"geometry":{"type":"Point","coordinates":[106.703822,10.781838]}},{"type":"Feature","properties":{"id":"jun6"},"geometry":{"type":"Point","coordinates":[106.703666,10.781944]}},{"type":"Feature","properties":{"id":"jun7"},"geometry":{"type":"Point","coordinates":[106.703182,10.781395]}},{"type":"Feature","properties":{"id":"jun8"},"geometry":{"type":"Point","coordinates":[106.702993,10.781164]}},{"type":"Feature","properties":{"id":"jun9"},"geometry":{"type":"Point","coordinates":[106.702756,10.780895]}},{"type":"Feature","properties":{"id":"sảnh 1"},"geometry":{"type":"Point","coordinates":[106.702609,10.780985]}},{"type":"Feature","properties":{"id":"sảnh 2"},"geometry":{"type":"Point","coordinates":[106.702209,10.780529]}},{"type":"Feature","properties":{"id":"phòng công tác xác hội"},"geometry":{"type":"Point","coordinates":[106.702719,10.781619]}},{"type":"Feature","properties":{"id":"bếp ăn tình thương"},"geometry":{"type":"Point","coordinates":[106.702656,10.781557]}},{"type":"Feature","properties":{"id":"khoa dược"},"geometry":{"type":"Point","coordinates":[106.702529,10.781548]}},{"type":"Feature","properties":{"id":"jun10"},"geometry":{"type":"Point","coordinates":[106.703063,10.781503]}},{"type":"Feature","properties":{"id":"jun11"},"geometry":{"type":"Point","coordinates":[106.70327,10.781933]}},{"type":"Feature","properties":{"id":"jun12"},"geometry":{"type":"Point","coordinates":[106.703494,10.781756]}},{"type":"Feature","properties":{"id":"jun13"},"geometry":{"type":"Point","coordinates":[106.702742,10.780186]}},{"type":"Feature","properties":{"id":"jun14"},"geometry":{"type":"Point","coordinates":[106.702313,10.780435]}},{"type":"Feature","properties":{"id":"jun15"},"geometry":{"type":"Point","coordinates":[106.70245,10.780288]}},{"type":"Feature","properties":{"id":"jun14"},"geometry":{"type":"Point","coordinates":[106.702958,10.780654]}},{"type":"Feature","properties":{"id":"jun15"},"geometry":{"type":"Point","coordinates":[106.703138,10.780509]}},{"type":"Feature","properties":{},"geometry":{"type":"LineString","coordinates":[[106.703157,10.780525],[106.703157,10.780525]]}},{"type":"Feature","properties":{},"geometry":{"type":"LineString","coordinates":[[106.703157,10.780525],[106.703138,10.780509],[106.702958,10.780654],[106.702937,10.780633]]}},{"type":"Feature","properties":{},"geometry":{"type":"LineString","coordinates":[[106.702913,10.780741],[106.702937,10.780633]]}},{"type":"Feature","properties":{},"geometry":{"type":"LineString","coordinates":[[106.702742,10.780186],[106.702937,10.780633]]}},{"type":"Feature","properties":{},"geometry":{"type":"LineString","coordinates":[[106.70245,10.780288],[106.702913,10.780741]]}},{"type":"Feature","properties":{},"geometry":{"type":"LineString","coordinates":[[106.702756,10.780895],[106.702913,10.780741]]}},{"type":"Feature","properties":{},"geometry":{"type":"LineString","coordinates":[[106.703145,10.781039],[106.702913,10.780741]]}},{"type":"Feature","properties":{},"geometry":{"type":"LineString","coordinates":[[106.702313,10.780435],[106.702756,10.780895]]}},{"type":"Feature","properties":{},"geometry":{"type":"LineString","coordinates":[[106.702609,10.780985],[106.702756,10.780895]]}},{"type":"Feature","properties":{},"geometry":{"type":"LineString","coordinates":[[106.702993,10.781164],[106.702756,10.780895]]}},{"type":"Feature","properties":{},"geometry":{"type":"LineString","coordinates":[[106.703341,10.781252],[106.703145,10.781039]]}},{"type":"Feature","properties":{},"geometry":{"type":"LineString","coordinates":[[106.703182,10.781395],[106.702993,10.781164]]}},{"type":"Feature","properties":{},"geometry":{"type":"LineString","coordinates":[[106.702993,10.781164],[106.703145,10.781039]]}},{"type":"Feature","properties":{},"geometry":{"type":"LineString","coordinates":[[106.703063,10.781503],[106.703161,10.781414],[106.703182,10.781395],[106.703398,10.781617],[106.703494,10.781756]]}},{"type":"Feature","properties":{},"geometry":{"type":"LineString","coordinates":[[106.703182,10.781395],[106.703341,10.781252]]}},{"type":"Feature","properties":{},"geometry":{"type":"LineString","coordinates":[[106.703341,10.781252],[106.703548,10.781473],[106.703682,10.781619],[106.703767,10.781711]]}},{"type":"Feature","properties":{},"geometry":{"type":"LineString","coordinates":[[106.703767,10.781711],[106.703822,10.781645],[106.703866,10.78178],[106.703822,10.781838],[106.703767,10.781711],[106.703866,10.78178]]}},{"type":"Feature","properties":{},"geometry":{"type":"LineString","coordinates":[[106.703822,10.781645],[106.703822,10.781838]]}},{"type":"Feature","properties":{},"geometry":{"type":"LineString","coordinates":[[106.703866,10.78178],[106.703966,10.781895],[106.703867,10.781909],[106.703866,10.78178]]}},{"type":"Feature","properties":{},"geometry":{"type":"LineString","coordinates":[[106.703822,10.781838],[106.703867,10.781909]]}},{"type":"Feature","properties":{},"geometry":{"type":"LineString","coordinates":[[106.703822,10.781838],[106.703966,10.781895]]}},{"type":"Feature","properties":{},"geometry":{"type":"LineString","coordinates":[[106.703866,10.78178],[106.703979,10.781851],[106.704146,10.781837],[106.704172,10.781866]]}},{"type":"Feature","properties":{},"geometry":{"type":"LineString","coordinates":[[106.703494,10.781756],[106.703666,10.781944],[106.703822,10.781838]]}},{"type":"Feature","properties":{},"geometry":{"type":"LineString","coordinates":[[106.7037,10.78201],[106.703666,10.781944]]}},{"type":"Feature","properties":{},"geometry":{"type":"LineString","coordinates":[[106.703666,10.781944],[106.703547,10.782045],[106.7037,10.78201]]}},{"type":"Feature","properties":{},"geometry":{"type":"LineString","coordinates":[[106.703358,10.78219],[106.703433,10.782131],[106.703547,10.782045]]}},{"type":"Feature","properties":{},"geometry":{"type":"LineString","coordinates":[[106.702209,10.780529],[106.702609,10.780985],[106.703063,10.781503]]}},{"type":"Feature","properties":{},"geometry":{"type":"LineString","coordinates":[[106.702209,10.780529],[106.702313,10.780435]]}},{"type":"Feature","properties":{},"geometry":{"type":"LineString","coordinates":[[106.702317,10.78043],[106.70245,10.780288],[106.702021,10.779822],[106.702287,10.7796]]}},{"type":"Feature","properties":{},"geometry":{"type":"LineString","coordinates":[[106.702287,10.7796],[106.702742,10.780186]]}},{"type":"Feature","properties":{"id":"jun16"},"geometry":{"type":"Point","coordinates":[106.702955,10.781578]}},{"type":"Feature","properties":{"id":"jun17"},"geometry":{"type":"Point","coordinates":[106.702772,10.78174]}},{"type":"Feature","properties":{"id":"jun18"},"geometry":{"type":"Point","coordinates":[106.702584,10.78157]}},{"type":"Feature","properties":{},"geometry":{"type":"LineString","coordinates":[[106.702584,10.78157],[106.702613,10.781601],[106.702636,10.781623],[106.702682,10.781667],[106.702772,10.78174]]}},{"type":"Feature","properties":{},"geometry":{"type":"LineString","coordinates":[[106.702682,10.781667],[106.702719,10.781619]]}},{"type":"Feature","properties":{},"geometry":{"type":"LineString","coordinates":[[106.702613,10.781601],[106.702656,10.781557]]}},{"type":"Feature","properties":{},"geometry":{"type":"LineString","coordinates":[[106.702529,10.781548],[106.702584,10.78157]]}},{"type":"Feature","properties":{},"geometry":{"type":"LineString","coordinates":[[106.702772,10.78174],[106.702955,10.781578]]}},{"type":"Feature","properties":{},"geometry":{"type":"LineString","coordinates":[[106.702955,10.781578],[106.703063,10.781503]]}},{"type":"Feature","properties":{"id":"jun19"},"geometry":{"type":"Point","coordinates":[106.703277,10.782341]}},{"type":"Feature","properties":{},"geometry":{"type":"LineString","coordinates":[[106.702772,10.78174],[106.703277,10.782341]]}},{"type":"Feature","properties":{},"geometry":{"type":"LineString","coordinates":[[106.702955,10.781578],[106.70318,10.781833],[106.70327,10.781933],[106.703303,10.781975]]}},{"type":"Feature","properties":{},"geometry":{"type":"LineString","coordinates":[[106.703277,10.782341],[106.703358,10.78219]]}},{"type":"Feature","properties":{"id":"jun20"},"geometry":{"type":"LineString","coordinates":[[106.703277,10.782341],[106.70307,10.78252],[106.703113,10.782565]]}},{"type":"Feature","properties":{"id":"jun21"},"geometry":{"type":"LineString","coordinates":[[106.70307,10.78252],[106.702628,10.782896],[106.702767,10.783112]]}},{"type":"Feature","properties":{"id":"jun22"},"geometry":{"type":"LineString","coordinates":[[106.702628,10.782896],[106.702449,10.783045],[106.702544,10.78315]]}},{"type":"Feature","properties":{},"geometry":{"type":"Polygon","coordinates":[[[106.701499,10.780056],[106.701499,10.780056],[106.701499,10.780056],[106.701499,10.780056]]]}},{"type":"Feature","properties":{},"geometry":{"type":"Polygon","coordinates":[[[106.701483,10.780063],[106.701483,10.780063],[106.701483,10.780063],[106.701483,10.780063]]]}},{"type":"Feature","properties":{"id":"khoa ngoại tổng hợp, khoa ngoại thần kinh, khoa sơ sinh"},"geometry":{"type":"Polygon","coordinates":[[[106.7016,10.77994],[106.70211,10.780503],[106.701996,10.780606],[106.701852,10.780457],[106.701778,10.7805],[106.701623,10.780317],[106.701674,10.78026],[106.701577,10.780154],[106.701519,10.780191],[106.70143,10.780082],[106.7016,10.77994]]]}},{"type":"Feature","properties":{"id":"khoa nội 1, khoa niệu, khoa nội 3"},"geometry":{"type":"Polygon","coordinates":[[[106.702122,10.780488],[106.702216,10.780591],[106.702197,10.780607],[106.702512,10.780961],[106.702532,10.780944],[106.702576,10.780992],[106.702432,10.781093],[106.70234,10.780996],[106.702282,10.781039],[106.702138,10.780877],[106.702191,10.780828],[106.702131,10.78076],[106.702072,10.780809],[106.702006,10.780735],[106.702057,10.78069],[106.70199,10.780609],[106.702122,10.780488]]]}},{"type":"Feature","properties":{"id":"khoa tim mạch, khoa thận máu nội tiết, khoa thần kinh"},"geometry":{"type":"Polygon","coordinates":[[[106.702575,10.780991],[106.702619,10.781036],[106.702599,10.781056],[106.702946,10.781446],[106.702835,10.781544],[106.702852,10.781563],[106.702795,10.781612],[106.70241,10.781186],[106.702468,10.781137],[106.702433,10.781094],[106.702575,10.780991]]]}},{"type":"Feature","properties":{"id":"test zone"},"geometry":{"type":"Polygon","coordinates":[[[106.703206,10.781057],[106.703284,10.78098],[106.703429,10.781134],[106.703497,10.781077],[106.703755,10.781353],[106.703694,10.781421],[106.703836,10.781581],[106.703749,10.78165],[106.703634,10.781524],[106.703663,10.781495],[106.703641,10.781465],[106.703624,10.781477],[106.703367,10.781198],[106.703375,10.781184],[106.703352,10.781161],[106.703319,10.781188],[106.703249,10.781111],[106.703206,10.781057]]]}},{"type":"Feature","properties":{},"geometry":{"type":"Polygon","coordinates":[[[106.703221,10.781392],[106.703221,10.781392],[106.703221,10.781392],[106.703221,10.781392]]]}},{"type":"Feature","properties":{"id":"nhà xe nhân viên"},"geometry":{"type":"Polygon","coordinates":[[[106.703213,10.781395],[106.703324,10.781291],[106.703757,10.781737],[106.703646,10.781841],[106.703213,10.781395]]]}},{"type":"Feature","properties":{"id":"công viên"},"geometry":{"type":"Polygon","coordinates":[[[106.703047,10.781163],[106.703143,10.781073],[106.703312,10.781247],[106.703216,10.781337],[106.703047,10.781163]]]}},{"type":"Feature","properties":{"id":"công viên"},"geometry":{"type":"Polygon","coordinates":[[[106.702805,10.780895],[106.702899,10.780808],[106.70312,10.781037],[106.703027,10.781124],[106.702805,10.780895]]]}},{"type":"Feature","properties":{"id":"công viên"},"geometry":{"type":"Polygon","coordinates":[[[106.702365,10.780441],[106.702473,10.78034],[106.702865,10.780745],[106.702757,10.780846],[106.702365,10.780441]]]}},{"type":"Feature","properties":{"id":"công viên"},"geometry":{"type":"Polygon","coordinates":[[[106.70193,10.779945],[106.702017,10.779864],[106.702428,10.780288],[106.702341,10.780369],[106.70193,10.779945]]]}},{"type":"Feature","properties":{"id":"khoa dược"},"geometry":{"type":"Polygon","coordinates":[[[106.702271,10.781351],[106.70234,10.781287],[106.70255,10.781504],[106.702482,10.781568],[106.702271,10.781351]]]}},{"type":"Feature","properties":{"id":"phòng công tác xã hội"},"geometry":{"type":"Polygon","coordinates":[[[106.702642,10.781542],[106.702678,10.781508],[106.702773,10.781606],[106.702737,10.78164],[106.702642,10.781542]]]}},{"type":"Feature","properties":{"id":"nhà nguyện"},"geometry":{"type":"Polygon","coordinates":[[[106.703273,10.78202],[106.703324,10.781976],[106.70335,10.782005],[106.703457,10.781922],[106.703504,10.781982],[106.703403,10.782069],[106.703427,10.782097],[106.703368,10.782136],[106.703347,10.782107],[106.703308,10.78214],[106.703262,10.782086],[106.703301,10.782056],[106.703273,10.78202]]]}},{"type":"Feature","properties":{"id":"căn-tin"},"geometry":{"type":"Polygon","coordinates":[[[106.703296,10.782352],[106.703704,10.782015],[106.703768,10.782089],[106.70339,10.782407],[106.703296,10.782352]]]}},{"type":"Feature","properties":{},"geometry":{"type":"Polygon","coordinates":[[[106.703705,10.782012],[106.70382,10.781907],[106.703931,10.781944],[106.70377,10.782083],[106.703705,10.782012]]]}},{"type":"Feature","properties":{"id":"công xa cơ xưởng"},"geometry":{"type":"Polygon","coordinates":[[[106.703838,10.782037],[106.704029,10.781858],[106.704128,10.78196],[106.703937,10.782138],[106.703838,10.782037]]]}}]}