{"type":"FeatureCollection","features":[{"type":"Feature","properties":{"id":"gate-LTT"},"geometry":{"coordinates":[106.70315789884222,10.780518589315037],"type":"Point"},"id":0},{"type":"Feature","properties":{"id":"it-room"},"geometry":{"coordinates":[106.7038483061819,10.781630991383437],"type":"Point"},"id":1},{"type":"Feature","properties":{"id":"cantin1"},"geometry":{"coordinates":[106.70269189416206,10.781797739051214],"type":"Point"},"id":2},{"type":"Feature","properties":{"id":"cantin2"},"geometry":{"coordinates":[106.70360540920558,10.782089262607641],"type":"Point"},"id":3},{"type":"Feature","properties":{"id ":"nhaxenhanvien"},"geometry":{"coordinates":[106.70329742978691,10.781508762821147],"type":"Point"},"id":4},{"type":"Feature","properties":{"congvien1":""},"geometry":{"coordinates":[106.70321864259881,10.781154760366363],"type":"Point"},"id":5},{"type":"Feature","properties":{"id":"congvien2"},"geometry":{"coordinates":[106.70237788298306,10.780505074428703],"type":"Point"},"id":6},{"type":"Feature","properties":{"id":"nhaxethuctapsinh"},"geometry":{"coordinates":[106.70280211238565,10.78042359741977],"type":"Point"},"id":7},{"type":"Feature","properties":{"id ":"congvien3"},"geometry":{"coordinates":[106.70288721095591,10.781697477650368],"type":"Point"},"id":8},{"type":"Feature","properties":{"id":"sanh1"},"geometry":{"coordinates":[106.7026002849816,10.780993414788199],"type":"Point"},"id":9},{"type":"Feature","properties":{"id":"sanh2"},"geometry":{"coordinates":[106.70220051290016,10.780532311764404],"type":"Point"},"id":10},{"type":"Feature","properties":{"id":"thuvienphi"},"geometry":{"coordinates":[106.7034661745505,10.782033836658627],"type":"Point"},"id":11}]}