{"type":"FeatureCollection","features":[{"type":"Feature","properties":{"from":"jun2","to":"jun3"},"geometry":{"coordinates":[[106.70319360641889,10.780946695725135],[106.70313906951753,10.781009282005243]],"type":"LineString"}},{"type":"Feature","properties":{"from":"jun3","to":"jun4"},"geometry":{"coordinates":[[106.70313906951753,10.781009282005243],[106.70289978456253,10.78075193765575]],"type":"LineString"}},{"type":"Feature","properties":{"from":"jun3","to":"nhaxethuctapsinh"},"geometry":{"coordinates":[[106.70313906951753,10.781009282005243],[106.70321864259881,10.781154760366363]],"type":"LineString"}},{"type":"Feature","properties":{"from":"jun4","to":"nhaxethuctapsnh"},"geometry":{"coordinates":[[106.70289978456253,10.78075193765575],[106.702931846061,10.780673318367377],[106.70280211238565,10.78042359741977]],"type":"LineString"}},{"type":"Feature","properties":{"from":"jun7","to":"jun9"},"geometry":{"coordinates":[[106.70319773642933,10.781365557123323],[106.70302776833756,10.781517621286767]],"type":"LineString"}},{"type":"Feature","properties":{"from":"gate-LTT","to":"jun1"},"geometry":{"coordinates":[[106.70315789884222,10.780518589315037],[106.70298409611593,10.7806749724042]],"type":"LineString"}},{"type":"Feature","properties":{"from":"jun1","to":"jun2"},"geometry":{"coordinates":[[106.70298409611593,10.7806749724042],[106.70319360641889,10.780946695725135]],"type":"LineString"}},{"type":"Feature","properties":{},"geometry":{"coordinates":[[106.70280211238565,10.78042359741977],[106.70268876385848,10.780140308925155],[106.70243255498332,10.779855445420978]],"type":"LineString"}},{"type":"Feature","properties":{"from":"nhaxethuctapsinh","to":"jun5"},"geometry":{"coordinates":[[106.70321864259881,10.781154760366363],[106.70333880984379,10.781237649806613]],"type":"LineString"}},{"type":"Feature","properties":{"from":"jun5","to":"jun6"},"geometry":{"coordinates":[[106.70333880984379,10.781237649806613],[106.70375878057143,10.781718816391674]],"type":"LineString"}},{"type":"Feature","properties":{"from":"jun6","to":"it-room"},"geometry":{"coordinates":[[106.70375878057143,10.781718816391674],[106.70386401518522,10.78162416727099]],"type":"LineString"}},{"type":"Feature","properties":{"from":"jun5","to":"jun7"},"geometry":{"coordinates":[[106.70333880984379,10.781237649806613],[106.70319773642933,10.781365557123323]],"type":"LineString"}},{"type":"Feature","properties":{"from":"jun7","to":"nhaxenhanvien"},"geometry":{"coordinates":[[106.70319773642933,10.781365557123323],[106.70329742978691,10.781508762821147]],"type":"LineString"}},{"type":"Feature","properties":{"from":"nhaxenhavien","to":"jun8"},"geometry":{"coordinates":[[106.70329742978691,10.781508762821147],[106.70364813213257,10.78193845878134]],"type":"LineString"}},{"type":"Feature","properties":{"from":"jun8","to":"cantin2"},"geometry":{"coordinates":[[106.70364813213257,10.78193845878134],[106.70360540920558,10.782089262607641]],"type":"LineString"}},{"type":"Feature","properties":{"from":"jun6","to":"jun8"},"geometry":{"coordinates":[[106.70375878057143,10.781718816391674],[106.70375742740697,10.781808023604171],[106.70364813213257,10.78193845878134]],"type":"LineString"}},{"type":"Feature","properties":{"from":"jun8","to":"thuvienphi"},"geometry":{"coordinates":[[106.70364813213257,10.78193845878134],[106.7034661745505,10.782033836658627]],"type":"LineString"}},{"type":"Feature","properties":{"from":"jun9","to":"jun10"},"geometry":{"coordinates":[[106.70302776833756,10.781517621286767],[106.70295108359232,10.781590192136647]],"type":"LineString"}},{"type":"Feature","properties":{"from":"jun10","to":"jun11"},"geometry":{"coordinates":[[106.70295108359232,10.781590192136647],[106.70276214884541,10.781760183413255]],"type":"LineString"},"id":18},{"type":"Feature","properties":{"from":"jun10","to":"congvien3"},"geometry":{"coordinates":[[106.70295108359232,10.781590192136647],[106.70288721095591,10.781697477650368]],"type":"LineString"}},{"type":"Feature","properties":{"from":"jun9","to":"sanh1"},"geometry":{"coordinates":[[106.70302776833756,10.781517621286767],[106.7026002849816,10.780993414788199]],"type":"LineString"}},{"type":"Feature","properties":{"from":"sanh1","to":"sanh2"},"geometry":{"coordinates":[[106.7026002849816,10.780993414788199],[106.70220051290016,10.780532311764404]],"type":"LineString"}},{"type":"Feature","properties":{"from":"jun4","to":"jun12"},"geometry":{"coordinates":[[106.70289978456253,10.78075193765575],[106.70276867861531,10.780869266393836]],"type":"LineString"}},{"type":"Feature","properties":{"from":"jun7","to":"jun13"},"geometry":{"coordinates":[[106.70319773642933,10.781365557123323],[106.70300487696215,10.78114915582205]],"type":"LineString"}},{"type":"Feature","properties":{"from":"jun12","to":"sanh1"},"geometry":{"coordinates":[[106.70276867861531,10.780869266393836],[106.7026002849816,10.780993414788199]],"type":"LineString"}},{"type":"Feature","properties":{"from":"jun13","to":"jun12"},"geometry":{"coordinates":[[106.70276867861531,10.780869266393836],[106.70300487696215,10.78114915582205]],"type":"LineString"}},{"type":"Feature","properties":{"from":"jun3","to":"jun13"},"geometry":{"coordinates":[[106.70313906951753,10.781009282005243],[106.70300487696215,10.78114915582205]],"type":"LineString"}},{"type":"Feature","properties":{"from":"jun12","to":"congvien2"},"geometry":{"coordinates":[[106.70276867861531,10.780869266393836],[106.70237788298306,10.780505074428703]],"type":"LineString"}},{"type":"Feature","properties":{"from":"jun11","to":"cantin1"},"geometry":{"coordinates":[[106.70276214884541,10.781760183413255],[106.70269189416206,10.781797739051214]],"type":"LineString"}}]}